CCSDS_OMM_VERS = 2.0
CREATION_DATE  = 
ORIGINATOR     = 

OBJECT_NAME    = COSMOS 2242
OBJECT_ID      = 1993-024A
CENTER_NAME    = EARTH
REF_FRAME      = TEME
TIME_SYSTEM    = UTC
MEAN_ELEMENT_THEORY = SGP/SGP4

EPOCH          = 2025-12-21T11:08:16.434240
MEAN_MOTION    = 14.96138900
ECCENTRICITY   = .0015537
INCLINATION    = 82.5186
RA_OF_ASC_NODE = 341.5053
ARG_OF_PERICENTER = 202.8193
MEAN_ANOMALY   = 157.2340

EPHEMERIS_TYPE = 0
CLASSIFICATION_TYPE = U
NORAD_CAT_ID   = 22626
ELEMENT_SET_NO = 999
REV_AT_EPOCH   = 76869
BSTAR          = .14439E-3
MEAN_MOTION_DOT = .1654E-4
MEAN_MOTION_DDOT = 0

CCSDS_OMM_VERS = 2.0
CREATION_DATE  = 
ORIGINATOR     = 

OBJECT_NAME    = SL-16 R/B
OBJECT_ID      = 1993-059B
CENTER_NAME    = EARTH
REF_FRAME      = TEME
TIME_SYSTEM    = UTC
MEAN_ELEMENT_THEORY = SGP/SGP4

EPOCH          = 2025-12-21T04:50:50.038656
MEAN_MOTION    = 14.17213652
ECCENTRICITY   = .0018397
INCLINATION    = 70.9879
RA_OF_ASC_NODE = 176.6412
ARG_OF_PERICENTER = 323.7537
MEAN_ANOMALY   = 36.2339

EPHEMERIS_TYPE = 0
CLASSIFICATION_TYPE = U
NORAD_CAT_ID   = 22803
ELEMENT_SET_NO = 999
REV_AT_EPOCH   = 66841
BSTAR          = .94208E-4
MEAN_MOTION_DOT = .142E-5
MEAN_MOTION_DDOT = 0

CCSDS_OMM_VERS = 2.0
CREATION_DATE  = 
ORIGINATOR     = 

OBJECT_NAME    = ARIANE 40 R/B
OBJECT_ID      = 1993-061H
CENTER_NAME    = EARTH
REF_FRAME      = TEME
TIME_SYSTEM    = UTC
MEAN_ELEMENT_THEORY = SGP/SGP4

EPOCH          = 2025-12-21T10:00:51.841152
MEAN_MOTION    = 14.32806728
ECCENTRICITY   = .001135
INCLINATION    = 98.5065
RA_OF_ASC_NODE = 60.7890
ARG_OF_PERICENTER = 151.2382
MEAN_ANOMALY   = 208.9430

EPHEMERIS_TYPE = 0
CLASSIFICATION_TYPE = U
NORAD_CAT_ID   = 22830
ELEMENT_SET_NO = 999
REV_AT_EPOCH   = 68289
BSTAR          = .9126E-4
MEAN_MOTION_DOT = .206E-5
MEAN_MOTION_DDOT = 0

CCSDS_OMM_VERS = 2.0
CREATION_DATE  = 
ORIGINATOR     = 

OBJECT_NAME    = COSMOS 2278
OBJECT_ID      = 1994-023A
CENTER_NAME    = EARTH
REF_FRAME      = TEME
TIME_SYSTEM    = UTC
MEAN_ELEMENT_THEORY = SGP/SGP4

EPOCH          = 2025-12-21T09:02:13.296192
MEAN_MOTION    = 14.14348143
ECCENTRICITY   = .0007915
INCLINATION    = 71.0534
RA_OF_ASC_NODE = 338.9407
ARG_OF_PERICENTER = 164.3785
MEAN_ANOMALY   = 195.7584

EPHEMERIS_TYPE = 0
CLASSIFICATION_TYPE = U
NORAD_CAT_ID   = 23087
ELEMENT_SET_NO = 999
REV_AT_EPOCH   = 63373
BSTAR          = -.39757E-4
MEAN_MOTION_DOT = -.123E-5
MEAN_MOTION_DDOT = 0

CCSDS_OMM_VERS = 2.0
CREATION_DATE  = 
ORIGINATOR     = 

OBJECT_NAME    = SL-16 R/B
OBJECT_ID      = 1994-023B
CENTER_NAME    = EARTH
REF_FRAME      = TEME
TIME_SYSTEM    = UTC
MEAN_ELEMENT_THEORY = SGP/SGP4

EPOCH          = 2025-12-21T02:31:29.671392
MEAN_MOTION    = 14.15001225
ECCENTRICITY   = .00018579
INCLINATION    = 70.9988
RA_OF_ASC_NODE = 235.9187
ARG_OF_PERICENTER = 7.9271
MEAN_ANOMALY   = 352.1881

EPHEMERIS_TYPE = 0
CLASSIFICATION_TYPE = U
NORAD_CAT_ID   = 23088
ELEMENT_SET_NO = 999
REV_AT_EPOCH   = 63497
BSTAR          = -.95425094E-4
MEAN_MOTION_DOT = -.232E-5
MEAN_MOTION_DDOT = 0

CCSDS_OMM_VERS = 2.0
CREATION_DATE  = 
ORIGINATOR     = 

OBJECT_NAME    = ARIANE 40+ R/B
OBJECT_ID      = 1995-021B
CENTER_NAME    = EARTH
REF_FRAME      = TEME
TIME_SYSTEM    = UTC
MEAN_ELEMENT_THEORY = SGP/SGP4

EPOCH          = 2025-12-21T11:36:39.697056
MEAN_MOTION    = 14.39701620
ECCENTRICITY   = .0007044
INCLINATION    = 98.4640
RA_OF_ASC_NODE = 62.9669
ARG_OF_PERICENTER = 25.7789
MEAN_ANOMALY   = 345.2089

EPHEMERIS_TYPE = 0
CLASSIFICATION_TYPE = U
NORAD_CAT_ID   = 23561
ELEMENT_SET_NO = 999
REV_AT_EPOCH   = 60799
BSTAR          = .94739E-4
MEAN_MOTION_DOT = .253E-5
MEAN_MOTION_DDOT = 0

CCSDS_OMM_VERS = 2.0
CREATION_DATE  = 
ORIGINATOR     = 

OBJECT_NAME    = SL-16 R/B
OBJECT_ID      = 1996-051B
CENTER_NAME    = EARTH
REF_FRAME      = TEME
TIME_SYSTEM    = UTC
MEAN_ELEMENT_THEORY = SGP/SGP4

EPOCH          = 2025-12-21T09:53:34.702944
MEAN_MOTION    = 14.12397302
ECCENTRICITY   = .001948
INCLINATION    = 70.7595
RA_OF_ASC_NODE = 340.9265
ARG_OF_PERICENTER = 250.7405
MEAN_ANOMALY   = 109.1608

EPHEMERIS_TYPE = 0
CLASSIFICATION_TYPE = U
NORAD_CAT_ID   = 24298
ELEMENT_SET_NO = 999
REV_AT_EPOCH   = 51059
BSTAR          = .15294E-5
MEAN_MOTION_DOT = -.47E-6
MEAN_MOTION_DDOT = 0

CCSDS_OMM_VERS = 2.0
CREATION_DATE  = 
ORIGINATOR     = 

OBJECT_NAME    = ORBVIEW 2 (SEASTAR)
OBJECT_ID      = 1997-037A
CENTER_NAME    = EARTH
REF_FRAME      = TEME
TIME_SYSTEM    = UTC
MEAN_ELEMENT_THEORY = SGP/SGP4

EPOCH          = 2025-12-21T08:23:33.275616
MEAN_MOTION    = 14.35422800
ECCENTRICITY   = .000133
INCLINATION    = 98.8461
RA_OF_ASC_NODE = 152.6411
ARG_OF_PERICENTER = 305.9563
MEAN_ANOMALY   = 54.1498

EPHEMERIS_TYPE = 0
CLASSIFICATION_TYPE = U
NORAD_CAT_ID   = 24883
ELEMENT_SET_NO = 999
REV_AT_EPOCH   = 49723
BSTAR          = .91055E-4
MEAN_MOTION_DOT = .215E-5
MEAN_MOTION_DDOT = 0

